INMARSAT 4-F2 (SOUTHPA*)
1 28899U 05044A   26147.96493029 -.00000255  00000+0  00000+0 0  9992
2 28899   5.0704  43.7370 0003281  21.5977 311.0474  1.00272044 75319
GSAT-8 (GAGAN/PRN 127)  
1 37605U 11022A   26148.83864102  .00000094  00000+0  00000+0 0  9991
2 37605   2.0827  82.0542 0002588 228.2431 293.0508  1.00271907 53022
LUCH 5A (SDCM/PRN 140)  
1 37951U 11074B   26148.61117772 -.00000043  00000+0  00000+0 0  9997
2 37951   8.7063  74.0931 0002536 357.5008 201.6645  1.00269265 52854
SES-5 (EGNOS/PRN 136)   
1 38652U 12036A   26148.74396940  .00000043  00000+0  00000+0 0  9994
2 38652   0.0492 309.4111 0002323 114.0920  95.5869  1.00271405 44265
GSAT-10 (GAGAN/PRN 128) 
1 38779U 12051B   26148.79767059 -.00000155  00000+0  00000+0 0  9994
2 38779   0.0368 262.0217 0007908 183.2140 171.2622  1.00273069 49907
LUCH 5B (SDCM/PRN 125)  
1 38977U 12061A   26148.78498694 -.00000135  00000+0  00000+0 0  9998
2 38977  10.4442  50.0759 0001261 137.1910 325.2730  1.00270635 49413
ASTRA 5B (EGNOS/PRN 123)
1 39617U 14011B   26148.72535742  .00000147  00000+0  00000+0 0  9999
2 39617   0.0499 327.3472 0002533  74.5359 128.9905  1.00272636 44474
LUCH 5V (SDCM/PRN 141)  
1 39727U 14023A   26148.87663997 -.00000261  00000+0  00000+0 0  9992
2 39727   5.0877  69.9437 0002545  18.4669 208.3636  1.00271455 44163
GSAT-15 (GAGAN/PRN 139) 
1 41028U 15065A   26148.74469565 -.00000248  00000+0  00000+0 0  9992
2 41028   0.0186 131.5198 0004190 296.2005 180.1747  1.00272413 38603
EUTELSAT 117 WEST B (W*)
1 41589U 16038B   26148.41240205 -.00000003  00000+0  00000+0 0  9996
2 41589   0.0097 142.3620 0000356  84.5405  50.5356  1.00271756 36465
SES-15 (WAAS/PRN 133)   
1 42709U 17026A   26148.40997654  .00000069  00000+0  00000+0 0  9996
2 42709   0.0201 328.5048 0000690  83.0654 212.8238  1.00268673  7239
QZS-2 (QZSS/PRN 194)    
1 42738U 17028A   26147.55590878 -.00000212  00000+0  00000+0 0  9993
2 42738  39.4596 243.4590 0760300 269.0384  73.4616  1.00289116  7414
QZS-3 (QZSS/PRN 199)    
1 42917U 17048A   26148.81718241 -.00000338  00000+0  00000+0 0  9999
2 42917   0.0674 214.2720 0002781 220.7831 232.4723  1.00275755 32067
QZS-4 (QZSS/PRN 195)    
1 42965U 17062A   26148.40701081 -.00000356  00000+0  00000+0 0  9997
2 42965  40.1197 343.7334 0744982 271.4586 275.7556  1.00257511 31603
BEIDOU-3 G1 (PRN 130)   
1 43683U 18085A   26148.82368243 -.00000099  00000+0  00000+0 0  9990
2 43683   2.8212  97.8989 0008342 343.3462 261.6145  1.00271876 27863
EUTELSAT 5 WEST B (EGN*)
1 44624U 19067A   26148.79102075 -.00000032  00000+0  00000+0 0  9999
2 44624   0.0642 347.4705 0003317  77.8334 100.7886  1.00272296 24241
BEIDOU-3 G2 (PRN 144)   
1 45344U 20017A   26148.87922166 -.00000132  00000+0  00000+0 0  9997
2 45344   2.8270  47.0752 0002743  16.4508 219.4434  1.00271274 23068
BEIDOU-3 G3 (PRN 143)   
1 45807U 20040A   26148.81388905 -.00000344  00000+0  00000+0 0  9993
2 45807   2.4019  67.4162 0003357 340.4094 242.0019  1.00267219 21874
GALAXY 30 (WAAS/PRN 135)
1 46114U 20056C   26148.43788891  .00000046  00000+0  00000+0 0  9996
2 46114   0.0026 346.4653 0002492  78.3859 213.7667  1.00270341 21096
QZS-1R (QZSS/PRN 196)   
1 49336U 21096A   26148.67462446 -.00000282  00000+0  00000+0 0  9994
2 49336  37.4240  79.8702 0753474 271.4482 272.7775  1.00262858 16813
QZS-6 (QZSS/PRN 200)    
1 62876U 25023A   26148.70302904 -.00000223  00000+0  00000+0 0  9993
2 62876   0.0111 336.3977 0002541  93.5848 159.8606  1.00270568  4751
